[{"OBJECT_NAME":"YAOGAN-30 11A","OBJECT_ID":"2021-065A","EPOCH":"2026-03-09T17:03:27.605952","MEAN_MOTION":15.0211069,"ECCENTRICITY":0.00046738,"INCLINATION":34.9929,"RA_OF_ASC_NODE":159.1721,"ARG_OF_PERICENTER":355.4238,"MEAN_ANOMALY":4.6427,"EPHEMERIS_TYPE":0,"CLASSIFICATION_TYPE":"U","NORAD_CAT_ID":49026,"ELEMENT_SET_NO":999,"REV_AT_EPOCH":25367,"BSTAR":0.00035664483,"MEAN_MOTION_DOT":4.757e-5,"MEAN_MOTION_DDOT":0},{"OBJECT_NAME":"STARLINK-5790","OBJECT_ID":"2023-042BC","EPOCH":"2026-03-09T07:01:22.727424","MEAN_MOTION":15.02531395,"ECCENTRICITY":0.00012555,"INCLINATION":43.005,"RA_OF_ASC_NODE":44.9882,"ARG_OF_PERICENTER":272.4301,"MEAN_ANOMALY":87.6398,"EPHEMERIS_TYPE":0,"CLASSIFICATION_TYPE":"U","NORAD_CAT_ID":56036,"ELEMENT_SET_NO":999,"REV_AT_EPOCH":16300,"BSTAR":6.860817e-6,"MEAN_MOTION_DOT":-1.11e-6,"MEAN_MOTION_DDOT":0}]
