YAOGAN-30 11A           
1 49026U 21065A   26068.71073618  .00004757  00000+0  35664-3 0  9999
2 49026  34.9929 159.1721 0004674 355.4238   4.6427 15.02110690253677
STARLINK-5790           
1 56036U 23042BC  26068.29262416 -.00000111  00000+0  68608-5 0  9991
2 56036  43.0050  44.9882 0001255 272.4301  87.6398 15.02531395163006
